NORAD_CAT_ID,OBJECT_NAME,OBJECT_TYPE,EPOCH,MEAN_MOTION,ECCENTRICITY,INCLINATION,RA_OF_ASC_NODE,ARG_OF_PERICENTER,MEAN_ANOMALY,BSTAR,MEAN_MOTION_DOT,MEAN_MOTION_DDOT,TLE_LINE0,TLE_LINE1,TLE_LINE2,SEMIMAJOR_AXIS,PERIOD,APOGEE,PERIGEE,DECAYED
53834.0,STARLINK-4737,PAYLOAD,2023-11-08 00:45:24,15.08824752,0.0001363,53.2166,171.5239,79.7514,280.3632,0.0018619,0.00029456,0.0,0 STARLINK-4737,1 53834U 22114S   23312.03153337  .00029456  00000-0  18619-2 0  9992,2 53834  53.2166 171.5239 0001363  79.7514 280.3632 15.08824752 64110,6917.927,95.439,540.735,538.849,0.0
53834.0,STARLINK-4737,PAYLOAD,2023-11-08 21:25:24,15.08871623,0.0001362,53.2168,167.6579,81.7975,278.3172,0.0016473,0.00026049,0.0,0 STARLINK-4737,1 53834U 22114S   23312.89264704  .00026049  00000-0  16473-2 0  9998,2 53834  53.2168 167.6579 0001362  81.7975 278.3172 15.08871623 64247,6917.784,95.436,540.591,538.707,0.0
53834.0,STARLINK-4737,PAYLOAD,2023-11-09 00:36:10,15.08877622,0.0001366,53.2169,167.0635,82.0394,278.0753,0.0016088,0.00025435,0.0,0 STARLINK-4737,1 53834U 22114S   23313.02512406  .00025435  00000-0  16088-2 0  9999,2 53834  53.2169 167.0635 0001366  82.0394 278.0753 15.08877622 63727,6917.765,95.435,540.575,538.685,0.0
53834.0,STARLINK-4737,PAYLOAD,2023-11-09 19:40:47,15.08874606,0.0001373,53.2163,163.4955,94.5884,265.5265,0.001395,0.00022004,0.0,0 STARLINK-4737,1 53834U 22114S   23313.81999433  .00022004  00000-0  13950-2 0  9999,2 53834  53.2163 163.4955 0001373  94.5884 265.5265 15.08874606 63847,6917.775,95.435,540.589,538.69,0.0
53834.0,STARLINK-4737,PAYLOAD,2023-11-09 21:16:10,15.08872883,0.0001371,53.216,163.1969,84.6449,275.4699,0.0012149,0.00019117,0.0,0 STARLINK-4737,1 53834U 22114S   23313.88623376  .00019117  00000-0  12149-2 0  9996,2 53834  53.2160 163.1969 0001371  84.6449 275.4699 15.08872883 64398,6917.78,95.435,540.593,538.696,0.0
53834.0,STARLINK-4737,PAYLOAD,2023-11-09 22:51:33,15.08870428,0.0001419,53.2161,162.8997,75.4579,284.6571,0.0007873,0.00012274,0.0,0 STARLINK-4737,1 53834U 22114S   23313.95247288  .00012274  00000-0  78730-3 0  9994,2 53834  53.2161 162.8997 0001419  75.4579 284.6571 15.08870428 63866,6917.787,95.436,540.634,538.671,0.0
53834.0,STARLINK-4737,PAYLOAD,2023-11-10 06:48:29,15.0885594,0.0001444,53.216,161.4137,92.0513,268.0645,0.00014632,2.042e-05,0.0,0 STARLINK-4737,1 53834U 22114S   23314.28367003  .00002042  00000-0  14632-3 0  9992,2 53834  53.2160 161.4137 0001444  92.0513 268.0645 15.08855940 63913,6917.832,95.437,540.696,538.698,0.0
53834.0,STARLINK-4737,PAYLOAD,2023-11-10 19:31:34,15.08843471,0.0001607,53.2161,159.0351,93.1322,266.9854,0.0001789,2.561e-05,0.0,0 STARLINK-4737,1 53834U 22114S   23314.81359116  .00002561  00000-0  17890-3 0  9992,2 53834  53.2161 159.0351 0001607  93.1322 266.9854 15.08843471 63999,6917.87,95.437,540.846,538.623,0.0
53834.0,STARLINK-4737,PAYLOAD,2023-11-10 21:06:57,15.08843699,0.0001513,53.2157,158.7369,89.5668,270.5497,-0.00011102,-2.055e-05,0.0,0 STARLINK-4737,1 53834U 22114S   23314.87983056 -.00002055  00000-0 -11102-3 0  9994,2 53834  53.2157 158.7369 0001513  89.5668 270.5497 15.08843699 64545,6917.869,95.437,540.781,538.687,0.0
53834.0,STARLINK-4737,PAYLOAD,2023-11-10 22:42:20,15.08846726,0.0001527,53.2154,158.4393,86.6285,273.4881,-0.0001195,-2.19e-05,0.0,0 STARLINK-4737,1 53834U 22114S   23314.94607082 -.00002190  00000-0 -11950-3 0  9995,2 53834  53.2154 158.4393 0001527  86.6285 273.4881 15.08846726 64558,6917.86,95.437,540.781,538.668,0.0
53834.0,STARLINK-4737,PAYLOAD,2023-11-11 19:22:21,15.08844015,0.0001519,53.2164,154.5744,92.0593,268.0574,-5.1516e-05,-1.108e-05,0.0,0 STARLINK-4737,1 53834U 22114S   23315.80719203 -.00001108  00000-0 -51516-4 0  9991,2 53834  53.2164 154.5744 0001519  92.0593 268.0574 15.08844015 64143,6917.868,95.437,540.784,538.682,0.0
53834.0,STARLINK-4737,PAYLOAD,2023-11-11 20:57:44,15.08842612,0.0001512,53.2164,154.2764,88.8427,271.2738,-9.089e-05,-1.734e-05,0.0,0 STARLINK-4737,1 53834U 22114S   23315.87343210 -.00001734  00000-0 -90890-4 0  9992,2 53834  53.2164 154.2764 0001512  88.8427 271.2738 15.08842612 64693,6917.872,95.437,540.783,538.691,0.0
53834.0,STARLINK-4737,PAYLOAD,2023-11-12 12:51:36,15.08840224,0.0001429,53.216,151.3027,92.1017,268.0139,9.9894e-05,1.302e-05,0.0,0 STARLINK-4737,1 53834U 22114S   23316.53583396  .00001302  00000-0  99894-4 0  9999,2 53834  53.2160 151.3027 0001429  92.1017 268.0139 15.08840224 64796,6917.88,95.438,540.733,538.756,0.0
53834.0,STARLINK-4737,PAYLOAD,2023-11-12 20:48:31,15.0884366,0.0001357,53.2171,149.8157,94.5659,265.5489,9.5418e-05,1.231e-05,0.0,0 STARLINK-4737,1 53834U 22114S   23316.86703290  .00001231  00000-0  95418-4 0  9991,2 53834  53.2171 149.8157 0001357  94.5659 265.5489 15.08843660 64845,6917.869,95.437,540.673,538.795,0.0
53834.0,STARLINK-4737,PAYLOAD,2023-11-13 12:42:23,15.0884195,0.0001319,53.217,146.8425,91.6932,268.4211,0.0001035,1.36e-05,0.0,0 STARLINK-4737,1 53834U 22114S   23317.52943361  .00001360  00000-0  10350-3 0  9994,2 53834  53.2170 146.8425 0001319  91.6932 268.4211 15.08841950 64945,6917.874,95.437,540.652,538.827,0.0
53834.0,STARLINK-4737,PAYLOAD,2023-11-13 19:03:55,15.08843076,0.0001319,53.217,145.6529,92.1131,268.0012,0.00010501,1.384e-05,0.0,0 STARLINK-4737,1 53834U 22114S   23317.79439261  .00001384  00000-0  10501-3 0  9996,2 53834  53.2170 145.6529 0001319  92.1131 268.0012 15.08843076 64984,6917.871,95.437,540.648,538.824,0.0
53834.0,STARLINK-4737,PAYLOAD,2023-11-14 12:33:10,15.08842495,0.0001306,53.2169,142.3818,92.0397,268.0745,6.8556e-05,8.03e-06,0.0,0 STARLINK-4737,1 53834U 22114S   23318.52303318  .00000803  00000-0  68556-4 0  9990,2 53834  53.2169 142.3818 0001306  92.0397 268.0745 15.08842495 65096,6917.873,95.437,540.641,538.834,0.0
53834.0,STARLINK-4737,PAYLOAD,2023-11-14 18:54:42,15.08842348,0.0001302,53.2169,141.1925,90.3106,269.8035,5.9333e-05,6.57e-06,0.0,0 STARLINK-4737,1 53834U 22114S   23318.78799312  .00000657  00000-0  59333-4 0  9991,2 53834  53.2169 141.1925 0001302  90.3106 269.8035 15.08842348 64599,6917.873,95.437,540.639,538.838,0.0
53834.0,STARLINK-4737,PAYLOAD,2023-11-15 12:23:56,15.08843054,0.0001323,53.2161,137.9213,88.9905,271.1239,7.1562e-05,8.51e-06,0.0,0 STARLINK-4737,1 53834U 22114S   23319.51663113  .00000851  00000-0  71562-4 0  9996,2 53834  53.2161 137.9213 0001323  88.9905 271.1239 15.08843054 65247,6917.871,95.437,540.651,538.821,0.0
53834.0,STARLINK-4737,PAYLOAD,2023-11-15 18:45:29,15.08844175,0.0001335,53.2159,136.7314,90.2829,269.8316,7.4463e-05,8.97e-06,0.0,0 STARLINK-4737,1 53834U 22114S   23319.78158973  .00000897  00000-0  74463-4 0  9991,2 53834  53.2159 136.7314 0001335  90.2829 269.8316 15.08844175 65286,6917.868,95.437,540.656,538.809,0.0
53834.0,STARLINK-4737,PAYLOAD,2023-11-16 12:14:44,15.08837641,5.94e-05,53.2231,133.4619,321.7878,38.3072,3.9113e-05,3.35e-06,0.0,0 STARLINK-4737,1 53834U 22114S   23320.51023550  .00000335  00000-0  39113-4 0  9996,2 53834  53.2231 133.4619 0000594 321.7878  38.3072 15.08837641 64851,6917.888,95.438,540.164,539.342,0.0
53834.0,STARLINK-4737,PAYLOAD,2023-11-16 21:47:03,15.08836707,0.0001075,53.2146,131.6748,83.4404,276.671,2.9889e-05,1.88e-06,0.0,0 STARLINK-4737,1 53834U 22114S   23320.90767571  .00000188  00000-0  29889-4 0  9992,2 53834  53.2146 131.6748 0001075  83.4404 276.6710 15.08836707 65456,6917.89,95.438,540.499,539.012,0.0
53834.0,STARLINK-4737,PAYLOAD,2023-11-17 12:05:31,15.08836966,0.0001368,53.2161,128.9997,89.4731,270.6418,1.624e-05,-2.9e-07,0.0,0 STARLINK-4737,1 53834U 22114S   23321.50383723 -.00000029  00000-0  16240-4 0  9994,2 53834  53.2161 128.9997 0001368  89.4731 270.6418 15.08836966 65548,6917.89,95.438,540.701,538.808,0.0
53834.0,STARLINK-4737,PAYLOAD,2023-11-17 18:27:04,15.0883789,0.0001384,53.2162,127.8103,89.3576,270.7575,2.0973e-05,4.6e-07,0.0,0 STARLINK-4737,1 53834U 22114S   23321.76879681  .00000046  00000-0  20973-4 0  9991,2 53834  53.2162 127.8103 0001384  89.3576 270.7575 15.08837890 65047,6917.887,95.438,540.709,538.794,0.0
53834.0,STARLINK-4737,PAYLOAD,2023-11-18 10:20:55,15.08837514,0.0001319,53.2168,124.8365,89.6666,270.4478,7.5691e-05,9.17e-06,0.0,0 STARLINK-4737,1 53834U 22114S   23322.43119709  .00000917  00000-0  75691-4 0  9998,2 53834  53.2168 124.8365 0001319  89.6666 270.4478 15.08837514 65683,6917.888,95.438,540.665,538.841,0.0
53834.0,STARLINK-4737,PAYLOAD,2023-11-19 03:50:09,15.08839818,0.0001324,53.2167,121.5654,89.032,271.0824,7.6127e-05,9.24e-06,0.0,0 STARLINK-4737,1 53834U 22114S   23323.15983571  .00000924  00000-0  76127-4 0  9997,2 53834  53.2167 121.5654 0001324  89.0320 271.0824 15.08839818 65258,6917.881,95.438,540.662,538.83,0.0
53834.0,STARLINK-4737,PAYLOAD,2023-11-19 10:11:42,15.08840648,0.000128,53.2169,120.3763,89.8231,270.2908,9.0161e-05,1.147e-05,0.0,0 STARLINK-4737,1 53834U 22114S   23323.42479539  .00001147  00000-0  90161-4 0  9993,2 53834  53.2169 120.3763 0001280  89.8231 270.2908 15.08840648 65839,6917.878,95.438,540.629,538.858,0.0
53834.0,STARLINK-4737,PAYLOAD,2023-11-19 18:08:37,15.08843963,0.0001258,53.2167,118.8891,88.8847,271.2289,9.5567e-05,1.234e-05,0.0,0 STARLINK-4737,1 53834U 22114S   23323.75599295  .00001234  00000-0  95567-4 0  9993,2 53834  53.2167 118.8891 0001258  88.8847 271.2289 15.08843963 65889,6917.868,95.437,540.604,538.863,0.0
53834.0,STARLINK-4737,PAYLOAD,2023-11-20 10:02:29,15.08839567,0.0001296,53.217,115.9158,88.7355,271.3786,2.1893e-05,6.1e-07,0.0,0 STARLINK-4737,1 53834U 22114S   23324.41839780  .00000061  00000-0  21893-4 0  9991,2 53834  53.2170 115.9158 0001296  88.7355 271.3786 15.08839567 65442,6917.882,95.438,540.643,538.85,0.0
53834.0,STARLINK-4737,PAYLOAD,2023-11-20 16:24:02,15.08839283,0.0001337,53.2174,114.7265,87.3179,272.7967,2.2068e-05,6.3e-07,0.0,0 STARLINK-4737,1 53834U 22114S   23324.68335823  .00000063  00000-0  22068-4 0  9996,2 53834  53.2174 114.7265 0001337  87.3179 272.7967 15.08839283 66023,6917.883,95.438,540.673,538.823,0.0
